satname,norad_id,inclination_deg,eccentricity,mean_motion_rev_per_day,perigee_km,apogee_km,l1,l2
STARLINK-1451,45668,53.0543,0.0003216,15.07765641,540.8033773560983,545.2550714716408,1 45668U 20035M   26027.01849694  .00029379  00000+0  19111-2 0  9991,2 45668  53.0543 253.8673 0003216 120.6273 239.5034 15.07765641312451
STARLINK-1452,45669,53.0335,0.0004878,15.37426225,450.3908373642107,457.05600038886587,1 45669U 20035N   26027.25092940  .00046846  00000+0  12603-2 0  9999,2 45669  53.0335 218.1138 0004878 172.3033 187.8045 15.37426225312973
STARLINK-1453,45670,53.0512,0.0006011,15.43461763,431.80571183831125,439.9975490798488,1 45670U 20035P   26028.00003472  .00175305  00000+0  37761-2 0  9992,2 45670  53.0512 208.0443 0006011 174.9576 340.1309 15.43461763  5788
STARLINK-1454,45671,53.055,9.77e-05,15.40682293,443.4278867944531,444.7609508136875,1 45671U 20035Q   26028.00003472  .01526240  00000+0  33160-1 0  9990,2 45671  53.0550 247.1546 0000977 113.2522 356.2668 15.40682293  5743
STARLINK-1456,45673,53.0524,0.0006616,15.41064567,438.4533224602292,447.4790061672493,1 45673U 20035S   26028.00003472  .00183604  00000+0  42792-2 0  9996,2 45673  53.0524 240.4424 0006616 143.3045  79.7380 15.41064567  5621
STARLINK-1457,45674,53.0504,9.3e-06,15.65157146,372.7240640503551,372.8496312339221,1 45674U 20035T   26028.00003472  .00264316  00000+0  25467-2 0  9997,2 45674  53.0504 224.3981 0000093 312.0587  77.4512 15.65157146  5778
STARLINK-1458,45675,53.054,0.000161,15.31179499,471.1891020646535,473.3949402094604,1 45675U 20035U   26028.00003472  .01756906  00000+0  51791-1 0  9998,2 45675  53.0540 247.7815 0001610 108.9294 338.8509 15.31179499  5696
STARLINK-1460,45676,53.054,0.000144,15.0641286,546.17489965409,548.169388687611,1 45676U 20035V   26026.96904246  .00003036  00000+0  22256-3 0  9995,2 45676  53.0540 253.9087 0001440  84.6341 275.4812 15.06412860312408
STARLINK-1392,45677,53.0493,0.0001447,15.06383748,546.2592632814722,548.2634735692945,1 45677U 20035W   26027.97531877 -.00004877  00000+0 -30888-3 0  9990,2 45677  53.0493 249.3908 0001447  92.0718 268.0437 15.06383748312598
STARLINK-1394,45679,53.0529,0.0006218,15.41414714,437.69241998612415,446.173859211729,1 45679U 20035Y   26027.00002315  .00152962  00000+0  35397-2 0  9992,2 45679  53.0529 235.1086 0006218 139.7644  97.4785 15.41414714  5932
STARLINK-1402,45685,53.0488,0.0010498,15.37766986,445.54308476837923,459.8851397636936,1 45685U 20035AE  26027.55177675  .00101335  00000+0  26618-2 0  9995,2 45685  53.0488 218.3048 0010498 127.2279 232.9683 15.37766986313004
STARLINK-1404,45686,53.1395,0.0001605,15.25696043,487.59401845764023,489.79827189724256,1 45686U 20035AF  26028.00003472  .01832462  00000+0  64597-1 0  9990,2 45686  53.1395 238.5888 0001605  71.7093 321.3386 15.25696043  5640
STARLINK-1413,45689,53.1425,0.0001373,15.26374985,485.71718146637977,487.6022546451586,1 45689U 20035AJ  26028.00003472  .01773628  00000+0  61452-1 0  9998,2 45689  53.1425 238.5298 0001373  69.3964 255.6758 15.26374985  5690
STARLINK-1417,45693,53.0515,0.0007754,15.10058332,530.6607005970545,541.3831782803354,1 45693U 20035AN  26027.92702079  .00028261  00000+0  17270-2 0  9997,2 45693  53.0515 238.7031 0007754 116.2170 243.9619 15.10058332312731
STARLINK-1420,45695,53.0541,0.0001088,15.39578741,446.61147972438084,448.09670658625146,1 45695U 20035AQ  26028.00003472  .01475566  00000+0  33358-1 0  9999,2 45695  53.0541 217.2691 0001088  67.2384 168.9666 15.39578741  5797
STARLINK-1422,45696,53.1295,0.0001688,15.23096462,495.34690446443165,497.6677843951111,1 45696U 20035AR  26028.00003472  .00583918  00000+0  22848-1 0  9992,2 45696  53.1295 238.3794 0001688  93.6579 275.5415 15.23096462  5591
STARLINK-1351,45697,53.0558,0.000183,15.37256751,452.97520369756876,455.4758483820997,1 45697U 20035AS  26028.00003472  .01591254  00000+0  39124-1 0  9991,2 45697  53.0558 216.3191 0001830 117.3389 328.5075 15.37256751  5700
STARLINK-1398,45699,53.0414,0.0002965,15.74399052,344.34798470911574,348.3356006331687,1 45699U 20035AU  26028.00003472  .00131011  00000+0  87677-3 0  9991,2 45699  53.0414 144.5554 0002965 271.2093  71.3168 15.74399052  5912
STARLINK-1400,45700,53.0551,7.23e-05,15.39577118,446.86540669115584,447.8523733968568,1 45700U 20035AV  26028.00003472  .01538457  00000+0  34626-1 0  9994,2 45700  53.0551 217.2116 0000723  89.3165  32.5666 15.39577118  5753
STARLINK-1403,45701,53.0548,0.0001452,15.06397763,546.2128524234586,548.223975635693,1 45701U 20035AW  26027.53945730  .00000649  00000+0  62436-4 0  9993,2 45701  53.0548 221.3503 0001452  86.4082 273.7073 15.06397763312945
STARLINK-1407,45703,53.0354,0.0009044,15.52743014,402.58332014731604,414.859389539557,1 45703U 20035AY  26028.00003472  .00095906  00000+0  15123-2 0  9995,2 45703  53.0354 152.8857 0009044 322.6276 147.1645 15.52743014  5872
STARLINK-1411,45706,53.0455,0.0001138,15.54793508,401.9812772852265,403.52460783615334,1 45706U 20035BB  26027.90117774  .00079643  00000+0  11710-2 0  9995,2 45706  53.0455 179.6081 0001138 300.7385  59.3513 15.54793508313568
STARLINK-1423,45710,53.054,0.0001469,15.40272492,444.3020720192926,446.30679911306197,1 45710U 20035BF  26028.00003472  .02225761  00000+0  48737-1 0  9995,2 45710  53.0540 216.8418 0001469  55.5722 317.9646 15.40272492  5740
STARLINK-1433,45711,53.0534,0.0001148,15.44911175,430.85731703593865,432.4208416237516,1 45711U 20035BG  26028.00003472  .01313159  00000+0  25148-1 0  9995,2 45711  53.0534 216.5186 0001148  84.9785 193.0740 15.44911175  5742
STARLINK-1434,45712,53.052,0.0003592,15.22014561,497.2942408131221,502.235325454124,1 45712U 20035BH  26027.52963022  .00089984  00000+0  38557-2 0  9992,2 45712  53.0520 210.0452 0003592  96.3411 263.7994 15.22014561313119
STARLINK-1465,45731,53.0548,0.0001435,15.35529064,458.3683011749263,460.3306597948258,1 45731U 20038B   26028.00003472  .01692706  00000+0  43711-1 0  9994,2 45731  53.0548  57.2647 0001435 103.2042 333.1510 15.35529064  5745
STARLINK-1471,45735,53.0506,0.0003221,15.45410062,427.98049574816287,432.3664093416919,1 45735U 20038F   26027.11707024  .00032302  00000+0  67086-3 0  9995,2 45735  53.0506 340.7488 0003221  93.7949 266.3425 15.45410062311098
STARLINK-1474,45738,53.026,0.0005399,15.92939927,290.45842940379225,297.66306853312835,1 45738U 20038J   26028.00003472  .00333187  53632-4  94147-3 0  9990,2 45738  53.0260 271.7459 0005399 175.3554 266.2910 15.92939927  5968
STARLINK-1480,45741,53.0541,0.0007686,15.40971748,437.99715968454257,448.482980516701,1 45741U 20038M   26028.00003472  .00132724  00000+0  31254-2 0  9993,2 45741  53.0541  50.9868 0007686  34.4120 110.2113 15.40971748  5783
STARLINK-1500,45744,53.0385,0.000415,15.32374775,465.8878147181049,471.57071371740585,1 45744U 20038Q   26027.22953259  .00033422  00000+0  10611-2 0  9995,2 45744  53.0385  26.8762 0004150  91.9694 268.1781 15.32374775310459
STARLINK-1504,45746,53.0259,0.0004513,15.50308401,412.7587949935514,418.89102501352045,1 45746U 20038S   26027.85235966  .00040257  00000+0  70272-3 0  9998,2 45746  53.0259 338.7717 0004513  77.4856 282.6657 15.50308401311174
STARLINK-1506,45747,53.0799,0.0004703,15.2481834,488.1002671567512,494.5616887368078,1 45747U 20038T   26027.71400631  .00017796  00000+0  71943-3 0  9995,2 45747  53.0799  31.7120 0004703  99.1858 260.9671 15.24818340310438
STARLINK-1464,45751,53.0543,0.0001319,15.3611821,456.69948493569063,458.5027526514277,1 45751U 20038X   26028.00003472  .01609395  00000+0  40992-1 0  9996,2 45751  53.0543  37.3948 0001319 113.4214 343.6372 15.36118210  5740
STARLINK-1477,45754,53.0517,9.98e-05,15.11686578,530.3666576168898,531.7457325786318,1 45754U 20038AA  26027.34973583  .00048339  00000+0  28058-2 0  9998,2 45754  53.0517  40.4874 0000998 260.0590 100.0289 15.11686578310274
STARLINK-1478,45755,53.0549,0.0003531,15.46238223,425.3390711183565,430.14538302851633,1 45755U 20038AB  26028.00003472  .00138508  00000+0  27302-2 0  9993,2 45755  53.0549  33.3928 0003531  72.4898  87.6964 15.46238223  5755
STARLINK-1484,45756,53.0067,0.0004056,15.81292525,324.064959694726,329.50399199593176,1 45756U 20038AC  26028.00003472  .00201539  00000+0  98133-3 0  9990,2 45756  53.0067 264.0330 0004056 154.5512 315.2528 15.81292525  5782
STARLINK-1493,45759,53.0539,0.0001671,15.30198265,474.0750538250377,476.36544581792896,1 45759U 20038AF  26028.00003472  .01721188  00000+0  52409-1 0  9995,2 45759  53.0539  37.9411 0001671  95.9748 322.9223 15.30198265  5692
STARLINK-1494,45760,53.0522,0.0002016,15.66373839,367.930225299363,370.6507880700583,1 45760U 20038AG  26027.87947973  .00079543  00000+0  75045-3 0  9997,2 45760  53.0522 353.3487 0002016 106.5367 253.5869 15.66373839310981
STARLINK-1502,45764,53.0557,0.0001445,15.23072204,495.58694264141286,497.5737359524692,1 45764U 20038AL  26028.00003472  .00740154  00000+0  28824-1 0  9998,2 45764  53.0557  38.3930 0001445  88.7518 279.8823 15.23072204  5741
STARLINK-1470,45772,53.0483,7.89e-05,15.24334058,492.24374163579614,493.32797326270156,1 45772U 20038AU  26027.21894317  .00016219  00000+0  66659-3 0  9993,2 45772  53.0483   6.2398 0000789 114.6805 245.4274 15.24334058310745
STARLINK-1482,45773,53.0776,0.0001826,15.11885241,529.1894244639252,531.7124407769179,1 45773U 20038AV  26028.00003472  .01189382  00000+0  63809-1 0  9991,2 45773  53.0776  19.2125 0001826  76.9019  59.6269 15.11885241  5744
STARLINK-1496,45780,53.0561,0.0007076,15.40638842,439.39518914985547,449.05019258437096,1 45780U 20038BC  26028.00003472  .00110575  00000+0  26423-2 0  9998,2 45780  53.0561  11.4416 0007076  62.6474 271.6982 15.40638842  5777
STARLINK-1497,45781,53.0267,0.0006967,15.96117857,280.5590637223404,289.8437594650559,1 45781U 20038BD  26028.00003472  .00557736  14044-3  13240-2 0  9993,2 45781  53.0267 283.9919 0006967 144.6766  57.4208 15.96117857  5891
